{
    "links": {
        "self": "http://www.neowsapp.com/rest/v1/neo/3478008?api_key=iIulBulltgU6a56xZRHN4H3l9WmuAYTsLGpBGhQ2"
    },
    "id": "3478008",
    "neo_reference_id": "3478008",
    "name": "(2009 WC11)",
    "designation": "2009 WC11",
    "nasa_jpl_url": "http://ssd.jpl.nasa.gov/sbdb.cgi?sstr=3478008",
    "absolute_magnitude_h": 22.1,
    "estimated_diameter": {
        "kilometers": {
            "estimated_diameter_min": 0.1010543415,
            "estimated_diameter_max": 0.2259643771
        },
        "meters": {
            "estimated_diameter_min": 101.054341542,
            "estimated_diameter_max": 225.9643771094
        },
        "miles": {
            "estimated_diameter_min": 0.0627922373,
            "estimated_diameter_max": 0.140407711
        },
        "feet": {
            "estimated_diameter_min": 331.5431259047,
            "estimated_diameter_max": 741.3529669956
        }
    },
    "is_potentially_hazardous_asteroid": false,
    "close_approach_data": [
        {
            "close_approach_date": "2009-11-18",
            "close_approach_date_full": "2009-Nov-18 02:20",
            "epoch_date_close_approach": 1258510800000,
            "relative_velocity": {
                "kilometers_per_second": "3.5005351411",
                "kilometers_per_hour": "12601.9265078403",
                "miles_per_hour": "7830.3470570522"
            },
            "miss_distance": {
                "astronomical": "0.2360153026",
                "lunar": "91.8099527114",
                "kilometers": "35307386.556365462",
                "miles": "21938992.6815168956"
            },
            "orbiting_body": "Earth"
        },
        {
            "close_approach_date": "2013-11-19",
            "close_approach_date_full": "2013-Nov-19 04:25",
            "epoch_date_close_approach": 1384835100000,
            "relative_velocity": {
                "kilometers_per_second": "10.7703086818",
                "kilometers_per_hour": "38773.1112543817",
                "miles_per_hour": "24092.1034902574"
            },
            "miss_distance": {
                "astronomical": "0.0352438789",
                "lunar": "13.7098688921",
                "kilometers": "5272409.213977943",
                "miles": "3276123.1697158934"
            },
            "orbiting_body": "Mars"
        }
    ],
    "orbital_data": {
        "orbit_id": "13",
        "orbit_determination_date": "2017-04-06 08:59:03",
        "first_observation_date": "2009-11-20",
        "last_observation_date": "2009-12-26",
        "data_arc_in_days": 36,
        "observations_used": 44,
        "orbit_uncertainty": "7",
        "minimum_orbit_intersection": ".227553",
        "jupiter_tisserand_invariant": "3.346",
        "epoch_osculation": "2459000.5",
        "eccentricity": ".494155016973619",
        "semi_major_axis": "2.402622915855614",
        "inclination": "2.334301979748822",
        "ascending_node_longitude": "72.99127404229658",
        "orbital_period": "1360.275416474254",
        "perihelion_distance": "1.215354748089777",
        "perihelion_argument": "342.3500300705334",
        "aphelion_distance": "3.58989108362145",
        "perihelion_time": "2459221.763298570418",
        "mean_anomaly": "301.4421619911278",
        "mean_motion": ".2646522870589668",
        "equinox": "J2000",
        "orbit_class": {
            "orbit_class_type": "AMO",
            "orbit_class_description": "Near-Earth asteroid orbits similar to that of 1221 Amor",
            "orbit_class_range": "1.017 AU < q (perihelion) < 1.3 AU"
        }
    },
    "is_sentry_object": false
}